[
    {
        "Altitude(m)": 710602.5393476057,
        "Argument of Periapsis(deg)": 0.009112096949301655,
        "Eccentricity": 0.0,
        "Inclination(deg)": 45.0,
        "Latitude(deg)": -27.118345337113677,
        "Longitude(deg)": 158.7643706742547,
        "Mean Anomaly(deg)": -39.86432668201527,
        "RAAN(deg)": 289.99139844683344,
        "Satellite Name": "Constellation 1 1295",
        "Satellite Number": 1295,
        "Semi-Major Axis(m)": 7083131.272910544,
        "Time(s)": 152
    },
    {
        "Altitude(m)": 710588.683828676,
        "Argument of Periapsis(deg)": 0.009172044955547059,
        "Eccentricity": 0.0,
        "Inclination(deg)": 45.0,
        "Latitude(deg)": -27.081278114015863,
        "Longitude(deg)": 158.81418344147437,
        "Mean Anomaly(deg)": -39.80362554176533,
        "RAAN(deg)": 289.99134185766786,
        "Satellite Name": "Constellation 1 1295",
        "Satellite Number": 1295,
        "Semi-Major Axis(m)": 7083131.272910544,
        "Time(s)": 153
    },
    {
        "Altitude(m)": 710574.8281104323,
        "Argument of Periapsis(deg)": 0.009231992961792466,
        "Eccentricity": 0.0,
        "Inclination(deg)": 45.0,
        "Latitude(deg)": -27.04418995060618,
        "Longitude(deg)": 158.8639608725441,
        "Mean Anomaly(deg)": -39.742924401515545,
        "RAAN(deg)": 289.99128526850234,
        "Satellite Name": "Constellation 1 1295",
        "Satellite Number": 1295,
        "Semi-Major Axis(m)": 7083131.272910544,
        "Time(s)": 154
    },
    {
        "Altitude(m)": 710560.972240644,
        "Argument of Periapsis(deg)": 0.009291940968037872,
        "Eccentricity": 0.0,
        "Inclination(deg)": 45.0,
        "Latitude(deg)": -27.007080893055374,
        "Longitude(deg)": 158.91370302739773,
        "Mean Anomaly(deg)": -39.682223261265605,
        "RAAN(deg)": 289.99122867933676,
        "Satellite Name": "Constellation 1 1295",
        "Satellite Number": 1295,
        "Semi-Major Axis(m)": 7083131.272910544,
        "Time(s)": 155
    },
    {
        "Altitude(m)": 710547.1162670526,
        "Argument of Periapsis(deg)": 0.009351888974283276,
        "Eccentricity": 0.0,
        "Inclination(deg)": 45.0,
        "Latitude(deg)": -26.9699509874674,
        "Longitude(deg)": 158.96340979788576,
        "Mean Anomaly(deg)": -39.62152212101567,
        "RAAN(deg)": 289.9911720901712,
        "Satellite Name": "Constellation 1 1295",
        "Satellite Number": 1295,
        "Semi-Major Axis(m)": 7083131.272910544,
        "Time(s)": 156
    },
    {
        "Altitude(m)": 710533.2602373968,
        "Argument of Periapsis(deg)": 0.00941183698052868,
        "Eccentricity": 0.0,
        "Inclination(deg)": 45.0,
        "Latitude(deg)": -26.932800279880205,
        "Longitude(deg)": 159.01308158016306,
        "Mean Anomaly(deg)": -39.56082098076578,
        "RAAN(deg)": 289.99111550100565,
        "Satellite Name": "Constellation 1 1295",
        "Satellite Number": 1295,
        "Semi-Major Axis(m)": 7083131.272910544,
        "Time(s)": 157
    },
    {
        "Altitude(m)": 710519.4041994035,
        "Argument of Periapsis(deg)": 0.009471784986774088,
        "Eccentricity": 0.0,
        "Inclination(deg)": 45.0,
        "Latitude(deg)": -26.895628816264118,
        "Longitude(deg)": 159.06271826610728,
        "Mean Anomaly(deg)": -39.50011984051589,
        "RAAN(deg)": 289.99105891184,
        "Satellite Name": "Constellation 1 1295",
        "Satellite Number": 1295,
        "Semi-Major Axis(m)": 7083131.272910544,
        "Time(s)": 158
    },
    {
        "Altitude(m)": 710505.5482007876,
        "Argument of Periapsis(deg)": 0.009531732993019492,
        "Eccentricity": 0.0,
        "Inclination(deg)": 45.0,
        "Latitude(deg)": -26.85843664252324,
        "Longitude(deg)": 159.1123199157057,
        "Mean Anomaly(deg)": -39.43941870026596,
        "RAAN(deg)": 289.9910023226745,
        "Satellite Name": "Constellation 1 1295",
        "Satellite Number": 1295,
        "Semi-Major Axis(m)": 7083131.272910544,
        "Time(s)": 159
    },
    {
        "Altitude(m)": 710491.6922892499,
        "Argument of Periapsis(deg)": 0.009591680999264898,
        "Eccentricity": 0.0,
        "Inclination(deg)": 45.0,
        "Latitude(deg)": -26.821223804495155,
        "Longitude(deg)": 159.16188658895788,
        "Mean Anomaly(deg)": -39.37871756001602,
        "RAAN(deg)": 289.9909457335089,
        "Satellite Name": "Constellation 1 1295",
        "Satellite Number": 1295,
        "Semi-Major Axis(m)": 7083131.272910544,
        "Time(s)": 160
    },
    {
        "Altitude(m)": 710477.8365124819,
        "Argument of Periapsis(deg)": 0.009651629005510304,
        "Eccentricity": 0.0,
        "Inclination(deg)": 45.0,
        "Latitude(deg)": -26.78399034795117,
        "Longitude(deg)": 159.21141834587527,
        "Mean Anomaly(deg)": -39.31801641976624,
        "RAAN(deg)": 289.9908891443433,
        "Satellite Name": "Constellation 1 1295",
        "Satellite Number": 1295,
        "Semi-Major Axis(m)": 7083131.272910544,
        "Time(s)": 161
    },
    {
        "Altitude(m)": 710463.9809181588,
        "Argument of Periapsis(deg)": 0.00971157701175571,
        "Eccentricity": 0.0,
        "Inclination(deg)": 45.0,
        "Latitude(deg)": -26.746736318595826,
        "Longitude(deg)": 159.2609152464814,
        "Mean Anomaly(deg)": -39.2573152795163,
        "RAAN(deg)": 289.9908325551778,
        "Satellite Name": "Constellation 1 1295",
        "Satellite Number": 1295,
        "Semi-Major Axis(m)": 7083131.272910544,
        "Time(s)": 162
    },
    {
        "Altitude(m)": 710450.1255539475,
        "Argument of Periapsis(deg)": 0.009771525018001118,
        "Eccentricity": 0.0,
        "Inclination(deg)": 45.0,
        "Latitude(deg)": -26.7094617620676,
        "Longitude(deg)": 159.3103771827134,
        "Mean Anomaly(deg)": -39.196614139266416,
        "RAAN(deg)": 289.99077596601217,
        "Satellite Name": "Constellation 1 1295",
        "Satellite Number": 1295,
        "Semi-Major Axis(m)": 7083131.272910544,
        "Time(s)": 163
    },
    {
        "Altitude(m)": 710436.2704675028,
        "Argument of Periapsis(deg)": 0.00983147302424652,
        "Eccentricity": 0.0,
        "Inclination(deg)": 45.0,
        "Latitude(deg)": -26.67216672393939,
        "Longitude(deg)": 159.35980455081054,
        "Mean Anomaly(deg)": -39.135912999016526,
        "RAAN(deg)": 289.99071937684664,
        "Satellite Name": "Constellation 1 1295",
        "Satellite Number": 1295,
        "Semi-Major Axis(m)": 7083131.272910544,
        "Time(s)": 164
    },
    {
        "Altitude(m)": 710422.4157064648,
        "Argument of Periapsis(deg)": 0.009891421030491928,
        "Eccentricity": 0.0,
        "Inclination(deg)": 45.0,
        "Latitude(deg)": -26.63485124971717,
        "Longitude(deg)": 159.4091972427314,
        "Mean Anomaly(deg)": -39.075211858766586,
        "RAAN(deg)": 289.99066278768106,
        "Satellite Name": "Constellation 1 1295",
        "Satellite Number": 1295,
        "Semi-Major Axis(m)": 7083131.272910544,
        "Time(s)": 165
    },
    {
        "Altitude(m)": 710408.5613184596,
        "Argument of Periapsis(deg)": 0.009951369036737332,
        "Eccentricity": 0.0,
        "Inclination(deg)": 45.0,
        "Latitude(deg)": -26.59751538484129,
        "Longitude(deg)": 159.4585553185415,
        "Mean Anomaly(deg)": -39.014510718516654,
        "RAAN(deg)": 289.9906061985155,
        "Satellite Name": "Constellation 1 1295",
        "Satellite Number": 1295,
        "Semi-Major Axis(m)": 7083131.272910544,
        "Time(s)": 166
    },
    {
        "Altitude(m)": 710394.7073511009,
        "Argument of Periapsis(deg)": 0.010011317042982738,
        "Eccentricity": 0.0,
        "Inclination(deg)": 45.0,
        "Latitude(deg)": -26.560159174686202,
        "Longitude(deg)": 159.50787883831586,
        "Mean Anomaly(deg)": -38.95380957826682,
        "RAAN(deg)": 289.99054960934996,
        "Satellite Name": "Constellation 1 1295",
        "Satellite Number": 1295,
        "Semi-Major Axis(m)": 7083131.272910544,
        "Time(s)": 167
    },
    {
        "Altitude(m)": 710380.8538519848,
        "Argument of Periapsis(deg)": 0.010071265049228144,
        "Eccentricity": 0.0,
        "Inclination(deg)": 45.0,
        "Latitude(deg)": -26.52278266456039,
        "Longitude(deg)": 159.55716786213884,
        "Mean Anomaly(deg)": -38.89310843801688,
        "RAAN(deg)": 289.9904930201843,
        "Satellite Name": "Constellation 1 1295",
        "Satellite Number": 1295,
        "Semi-Major Axis(m)": 7083131.272910544,
        "Time(s)": 168
    },
    {
        "Altitude(m)": 710367.0008687023,
        "Argument of Periapsis(deg)": 0.01013121305547355,
        "Eccentricity": 0.0,
        "Inclination(deg)": 45.0,
        "Latitude(deg)": -26.485385899706667,
        "Longitude(deg)": 159.60642245010385,
        "Mean Anomaly(deg)": -38.83240729776694,
        "RAAN(deg)": 289.9904364310188,
        "Satellite Name": "Constellation 1 1295",
        "Satellite Number": 1295,
        "Semi-Major Axis(m)": 7083131.272910544,
        "Time(s)": 169
    },
    {
        "Altitude(m)": 710353.148448829,
        "Argument of Periapsis(deg)": 0.010191161061718957,
        "Eccentricity": 0.0,
        "Inclination(deg)": 45.0,
        "Latitude(deg)": -26.44796892530231,
        "Longitude(deg)": 159.6556426623121,
        "Mean Anomaly(deg)": -38.77170615751711,
        "RAAN(deg)": 289.9903798418532,
        "Satellite Name": "Constellation 1 1295",
        "Satellite Number": 1295,
        "Semi-Major Axis(m)": 7083131.272910544,
        "Time(s)": 170
    }
]